NORAD_CAT_ID,OBJECT_NAME,OBJECT_TYPE,EPOCH,MEAN_MOTION,ECCENTRICITY,INCLINATION,RA_OF_ASC_NODE,ARG_OF_PERICENTER,MEAN_ANOMALY,BSTAR,MEAN_MOTION_DOT,MEAN_MOTION_DDOT,TLE_LINE0,TLE_LINE1,TLE_LINE2,SEMIMAJOR_AXIS,PERIOD,APOGEE,PERIGEE,DECAYED
53396.0,STARLINK-4524,PAYLOAD,2024-01-11 08:43:28,15.08843936,0.0001745,53.2168,63.0565,96.3832,263.7359,0.00013382,1.843e-05,0.0,0 STARLINK-4524,1 53396U 22097J   24011.36352081  .00001843  00000-0  13382-3 0  9998,2 53396  53.2168  63.0565 0001745  96.3832 263.7359 15.08843936 79015,6917.868,95.437,540.941,538.526,0.0
53396.0,STARLINK-4524,PAYLOAD,2024-01-12 02:12:43,15.08829518,0.0001551,53.2187,59.7917,84.3392,275.7777,0.00021683,3.164e-05,0.0,0 STARLINK-4524,1 53396U 22097J   24012.09217458  .00003164  00000-0  21683-3 0  9998,2 53396  53.2187  59.7917 0001551  84.3392 275.7777 15.08829518 79121,6917.912,95.438,540.85,538.704,0.0
53396.0,STARLINK-4524,PAYLOAD,2024-01-12 10:09:39,15.08826624,0.0001287,53.2184,58.3,97.0607,263.0531,0.00014877,2.08e-05,0.0,0 STARLINK-4524,1 53396U 22097J   24012.42337865  .00002080  00000-0  14877-3 0  9993,2 53396  53.2184  58.3000 0001287  97.0607 263.0531 15.08826624 79664,6917.921,95.438,540.677,538.896,0.0
53396.0,STARLINK-4524,PAYLOAD,2024-01-13 11:35:49,15.08844531,0.0001685,53.2183,53.5411,111.343,248.7743,1.0103e-05,-1.27e-06,0.0,0 STARLINK-4524,1 53396U 22097J   24013.48321506 -.00000127  00000-0  10103-4 0  9995,2 53396  53.2183  53.5411 0001685 111.3430 248.7743 15.08844531 79338,6917.867,95.437,540.897,538.566,0.0
53396.0,STARLINK-4524,PAYLOAD,2024-01-14 11:26:36,15.08847861,0.0002,53.2199,49.0754,119.8534,240.2657,8.5026e-05,1.066e-05,0.0,0 STARLINK-4524,1 53396U 22097J   24014.47681321  .00001066  00000-0  85026-4 0  9997,2 53396  53.2199  49.0754 0002000 119.8534 240.2657 15.08847861 79975,6917.856,95.437,541.105,538.338,0.0
53396.0,STARLINK-4524,PAYLOAD,2024-01-15 09:42:00,15.08846947,0.000217,53.2206,44.9074,63.7211,296.4004,0.00010417,1.37e-05,0.0,0 STARLINK-4524,1 53396U 22097J   24015.40417680  .00001370  00000-0  10417-3 0  9995,2 53396  53.2206  44.9074 0002170  63.7211 296.4004 15.08846947 79625,6917.859,95.437,541.225,538.223,0.0
53396.0,STARLINK-4524,PAYLOAD,2024-01-16 07:57:25,15.08842608,0.0001586,53.22,40.7498,85.4443,274.673,-2.6227e-05,-7.05e-06,0.0,0 STARLINK-4524,1 53396U 22097J   24016.33154223 -.00000705  00000-0 -26227-4 0  9999,2 53396  53.2200  40.7498 0001586  85.4443 274.6730 15.08842608 79760,6917.872,95.437,540.835,538.64,0.0
53396.0,STARLINK-4524,PAYLOAD,2024-01-17 07:48:12,15.08845825,0.0001559,53.2193,36.2977,92.844,267.273,-8.4812e-06,-4.23e-06,0.0,0 STARLINK-4524,1 53396U 22097J   24017.32514204 -.00000423  00000-0 -84812-5 0  9990,2 53396  53.2193  36.2977 0001559  92.8440 267.2730 15.08845825 80407,6917.863,95.437,540.806,538.649,0.0
53396.0,STARLINK-4524,PAYLOAD,2024-01-18 04:28:13,15.08849685,0.0001442,53.2196,32.4314,73.8225,286.2926,-8.9242e-05,-1.708e-05,0.0,0 STARLINK-4524,1 53396U 22097J   24018.18626523 -.00001708  00000-0 -89242-4 0  9991,2 53396  53.2196  32.4314 0001442  73.8225 286.2926 15.08849685 80040,6917.851,95.437,540.713,538.718,0.0
53396.0,STARLINK-4524,PAYLOAD,2024-01-18 10:49:45,15.08842193,0.0001597,53.2179,31.2382,83.7248,276.3926,0.00011025,1.467e-05,0.0,0 STARLINK-4524,1 53396U 22097J   24018.45122248  .00001467  00000-0  11025-3 0  9999,2 53396  53.2179  31.2382 0001597  83.7248 276.3926 15.08842193 80574,6917.874,95.437,540.843,538.634,0.0
53396.0,STARLINK-4524,PAYLOAD,2024-01-19 01:08:14,15.08836741,0.0001515,53.2178,28.5603,96.6428,263.4736,-1.1793e-06,-3.07e-06,0.0,0 STARLINK-4524,1 53396U 22097J   24019.04738963 -.00000307  00000-0 -11793-5 0  9990,2 53396  53.2178  28.5603 0001515  96.6428 263.4736 15.08836741 80175,6917.89,95.438,540.803,538.707,0.0
53396.0,STARLINK-4524,PAYLOAD,2024-01-19 07:29:46,15.08843692,0.0001415,53.2173,27.3697,88.5628,271.5526,4.2146e-05,3.83e-06,0.0,0 STARLINK-4524,1 53396U 22097J   24019.31234441  .00000383  00000-0  42146-4 0  9999,2 53396  53.2173  27.3697 0001415  88.5628 271.5526 15.08843692 80216,6917.869,95.437,540.713,538.755,0.0
53396.0,STARLINK-4524,PAYLOAD,2024-01-20 04:09:47,15.08837478,0.0001408,53.2171,23.5071,106.1365,253.9782,4.467e-05,4.23e-06,0.0,0 STARLINK-4524,1 53396U 22097J   24020.17346839  .00000423  00000-0  44670-4 0  9999,2 53396  53.2171  23.5071 0001408 106.1365 253.9782 15.08837478 80342,6917.888,95.438,540.727,538.779,0.0
53396.0,STARLINK-4524,PAYLOAD,2024-01-20 07:20:33,15.08839887,0.0001389,53.2175,22.9127,106.3257,253.7888,6.9578e-05,8.2e-06,0.0,0 STARLINK-4524,1 53396U 22097J   24020.30594681  .00000820  00000-0  69578-4 0  9999,2 53396  53.2175  22.9127 0001389 106.3257 253.7888 15.08839887 80858,6917.881,95.438,540.707,538.785,0.0
53396.0,STARLINK-4524,PAYLOAD,2024-01-21 05:35:57,15.08839922,0.0001394,53.218,18.7548,106.9973,253.1172,8.3366e-05,1.039e-05,0.0,0 STARLINK-4524,1 53396U 22097J   24021.23330927  .00001039  00000-0  83366-4 0  9997,2 53396  53.2180  18.7548 0001394 106.9973 253.1172 15.08839922 80996,6917.881,95.438,540.71,538.781,0.0
53396.0,STARLINK-4524,PAYLOAD,2024-01-21 07:11:20,15.08842485,0.0001352,53.2179,18.4548,93.6007,266.5139,0.00010734,1.421e-05,0.0,0 STARLINK-4524,1 53396U 22097J   24021.29954765  .00001421  00000-0  10734-3 0  9998,2 53396  53.2179  18.4548 0001352  93.6007 266.5139 15.08842485 80512,6917.873,95.437,540.673,538.802,0.0
53396.0,STARLINK-4524,PAYLOAD,2024-01-21 23:05:12,15.08840382,0.0001421,53.2183,15.4814,77.7962,282.319,7.0312e-05,8.31e-06,0.0,0 STARLINK-4524,1 53396U 22097J   24021.96195045  .00000831  00000-0  70312-4 0  9993,2 53396  53.2183  15.4814 0001421  77.7962 282.3190 15.08840382 81103,6917.879,95.438,540.727,538.761,0.0
53396.0,STARLINK-4524,PAYLOAD,2024-01-22 07:02:07,15.08845648,0.0001457,53.2188,13.9952,91.4401,268.6758,0.00012869,1.761e-05,0.0,0 STARLINK-4524,1 53396U 22097J   24022.29314571  .00001761  00000-0  12869-3 0  9992,2 53396  53.2188  13.9952 0001457  91.4401 268.6758 15.08845648 81156,6917.863,95.437,540.736,538.72,0.0
53396.0,STARLINK-4524,PAYLOAD,2024-01-22 08:37:30,15.08848606,0.0001715,53.2187,13.6946,130.8334,229.2807,0.00019969,2.892e-05,0.0,0 STARLINK-4524,1 53396U 22097J   24022.35937951  .00002892  00000-0  19969-3 0  9996,2 53396  53.2187  13.6946 0001715 130.8334 229.2807 15.08848606 80676,6917.854,95.437,540.905,538.533,0.0
53396.0,STARLINK-4524,PAYLOAD,2024-01-23 03:42:08,15.08842488,0.0001508,53.2191,10.1233,92.3154,267.8011,-1.9388e-06,-3.19e-06,0.0,0 STARLINK-4524,1 53396U 22097J   24023.15426798 -.00000319  00000-0 -19388-5 0  9998,2 53396  53.2191  10.1233 0001508  92.3154 267.8011 15.08842488 80794,6917.873,95.437,540.781,538.695,0.0
53396.0,STARLINK-4524,PAYLOAD,2024-01-23 05:17:31,15.08844739,0.0001524,53.2182,9.8303,95.0383,265.0783,4.9535e-05,5.01e-06,0.0,0 STARLINK-4524,1 53396U 22097J   24023.22050592  .00000501  00000-0  49535-4 0  9998,2 53396  53.2182   9.8303 0001524  95.0383 265.0783 15.08844739 81292,6917.866,95.437,540.785,538.677,0.0
53396.0,STARLINK-4524,PAYLOAD,2024-01-24 05:08:18,15.08850068,0.0001917,53.2183,5.3656,118.6498,241.4687,-4.596e-05,-1.02e-05,0.0,0 STARLINK-4524,1 53396U 22097J   24024.21410243 -.00001020  00000-0 -45960-4 0  9998,2 53396  53.2183   5.3656 0001917 118.6498 241.4687 15.08850068 80955,6917.85,95.437,541.041,538.388,0.0
53396.0,STARLINK-4524,PAYLOAD,2024-01-25 03:23:42,15.08837939,0.0002057,53.2196,1.2143,124.6107,235.508,3.9618e-05,3.42e-06,0.0,0 STARLINK-4524,1 53396U 22097J   24025.14146876  .00000342  00000-0  39618-4 0  9996,2 53396  53.2196   1.2143 0002057 124.6107 235.5080 15.08837939 81094,6917.887,95.438,541.175,538.329,0.0
53396.0,STARLINK-4524,PAYLOAD,2024-01-25 04:59:05,15.08844417,0.0001769,53.2196,0.9119,117.2555,242.8617,-1.4473e-05,-5.18e-06,0.0,0 STARLINK-4524,1 53396U 22097J   24025.20770624 -.00000518  00000-0 -14473-4 0  9996,2 53396  53.2196   0.9119 0001769 117.2555 242.8617 15.08844417 81598,6917.867,95.437,540.956,538.508,0.0
53396.0,STARLINK-4524,PAYLOAD,2024-01-26 03:14:31,15.08833849,0.0002157,53.2199,356.7475,128.0813,232.0374,7.7588e-05,9.47e-06,0.0,0 STARLINK-4524,1 53396U 22097J   24026.13508487  .00000947  00000-0  77588-4 0  9995,2 53396  53.2199 356.7475 0002157 128.0813 232.0374 15.08833849 81247,6917.899,95.438,541.256,538.272,0.0
53396.0,STARLINK-4524,PAYLOAD,2024-01-26 04:49:54,15.08836986,0.0001835,53.2196,356.4496,120.7679,239.3494,0.00010793,1.43e-05,0.0,0 STARLINK-4524,1 53396U 22097J   24026.20132387  .00001430  00000-0  10793-3 0  9997,2 53396  53.2196 356.4496 0001835 120.7679 239.3494 15.08836986 81748,6917.89,95.438,541.024,538.485,0.0
53396.0,STARLINK-4524,PAYLOAD,2024-01-27 03:05:17,15.08852393,0.0001453,53.2187,352.2891,110.4546,249.6602,0.00014398,2.005e-05,0.0,0 STARLINK-4524,1 53396U 22097J   24027.12867584  .00002005  00000-0  14398-3 0  9997,2 53396  53.2187 352.2891 0001453 110.4546 249.6602 15.08852393 81392,6917.843,95.437,540.713,538.702,0.0
53396.0,STARLINK-4524,PAYLOAD,2024-01-27 07:51:28,15.08791209,0.0002214,53.219,351.3893,36.5147,323.5996,0.0012103,0.00019001,0.0,0 STARLINK-4524,1 53396U 22097J   24027.32741317  .00019001  00000-0  12103-2 0  9999,2 53396  53.2190 351.3893 0002214  36.5147 323.5996 15.08791209 81429,6918.03,95.441,541.426,538.363,0.0
53396.0,STARLINK-4524,PAYLOAD,2024-01-27 22:09:55,15.0885324,0.0001386,53.2182,348.7091,76.1446,283.97,6.4251e-05,7.35e-06,0.0,0 STARLINK-4524,1 53396U 22097J   24027.92356101  .00000735  00000-0  64251-4 0  9995,2 53396  53.2182 348.7091 0001386  76.1446 283.9700 15.08853240 82002,6917.84,95.437,540.664,538.746,0.0
53396.0,STARLINK-4524,PAYLOAD,2024-01-28 04:31:28,15.08851501,0.0001495,53.2192,347.5196,91.8889,268.2274,5.4569e-05,5.81e-06,0.0,0 STARLINK-4524,1 53396U 22097J   24028.18851979  .00000581  00000-0  54569-4 0  9997,2 53396  53.2192 347.5196 0001495  91.8889 268.2274 15.08851501 81551,6917.845,95.437,540.744,538.676,0.0
